{"type": "FeatureCollection", "features": [ {"type": "Feature", "properties": {"norad_id": 30435, "name": "FENGYUN 1C DEB", "group": "fengyun-1c-debris", "lat": -20.68736124638428, "lon": -15.884744794025918, "alt_km": 1022.7283327088953, "timestamp": "2025-12-20T18:51:31.990511+00:00", "meta": {"OBJECT_NAME": "FENGYUN 1C DEB", "OBJECT_ID": "1999-025AEW", "EPOCH": "2025-12-20T10:52:22.466784", "MEAN_MOTION": 13.79646173, "ECCENTRICITY": 0.02084006, "INCLINATION": 99.0172, "RA_OF_ASC_NODE": 340.3605, "ARG_OF_PERICENTER": 91.2055, "MEAN_ANOMALY": 38.4008, "EPHEMERIS_TYPE": 0, "CLASSIFICATION_TYPE": "U", "NORAD_CAT_ID": 30435, "ELEMENT_SET_NO": 999, "REV_AT_EPOCH": 94266, "BSTAR": 0.0012323423, "MEAN_MOTION_DOT": 1.457e-05, "MEAN_MOTION_DDOT": 0}, "tle": {"line1": "1 30435U 99025AEW 25354.45303781  .00001457  00000+0  12323-2 0  9999", "line2": "2 30435  99.0172 340.3605 0208400  91.2055  38.4008 13.79646173942669"}}, "geometry": {"type": "Point", "coordinates": [-15.884744794025918, -20.68736124638428]}}, {"type": "Feature", "properties": {"norad_id": 30436, "name": "FENGYUN 1C DEB", "group": "fengyun-1c-debris", "lat": -7.369183210762203, "lon": 67.33541939263925, "alt_km": 805.1961798772863, "timestamp": "2025-12-20T18:51:31.990521+00:00", "meta": {"OBJECT_NAME": "FENGYUN 1C DEB", "OBJECT_ID": "1999-025AEX", "EPOCH": "2025-12-20T05:12:09.719424", "MEAN_MOTION": 14.2234868, "ECCENTRICITY": 0.00979812, "INCLINATION": 98.4269, "RA_OF_ASC_NODE": 247.8899, "ARG_OF_PERICENTER": 111.598, "MEAN_ANOMALY": 42.7163, "EPHEMERIS_TYPE": 0, "CLASSIFICATION_TYPE": "U", "NORAD_CAT_ID": 30436, "ELEMENT_SET_NO": 999, "REV_AT_EPOCH": 96543, "BSTAR": 0.001354592, "MEAN_MOTION_DOT": 3.125e-05, "MEAN_MOTION_DDOT": 0}, "tle": {"line1": "1 30436U 99025AEX 25354.21677916  .00003125  00000+0  13546-2 0  9990", "line2": "2 30436  98.4269 247.8899 0097981 111.5980  42.7163 14.22348680965430"}}, "geometry": {"type": "Point", "coordinates": [67.33541939263925, -7.369183210762203]}}, {"type": "Feature", "properties": {"norad_id": 30437, "name": "FENGYUN 1C DEB", "group": "fengyun-1c-debris", "lat": 16.748074355268155, "lon": 12.841838683822669, "alt_km": 591.2604787380842, "timestamp": "2025-12-20T18:51:31.990531+00:00", "meta": {"OBJECT_NAME": "FENGYUN 1C DEB", "OBJECT_ID": "1999-025AEY", "EPOCH": "2025-12-20T13:00:33.985728", "MEAN_MOTION": 14.88330739, "ECCENTRICITY": 0.00354945, "INCLINATION": 98.9202, "RA_OF_ASC_NODE": 15.2769, "ARG_OF_PERICENTER": 77.8594, "MEAN_ANOMALY": 74.454, "EPHEMERIS_TYPE": 0, "CLASSIFICATION_TYPE": "U", "NORAD_CAT_ID": 30437, "ELEMENT_SET_NO": 999, "REV_AT_EPOCH": 99303, "BSTAR": 0.0013006797, "MEAN_MOTION_DOT": 0.00012124, "MEAN_MOTION_DDOT": 0}, "tle": {"line1": "1 30437U 99025AEY 25354.54206002  .00012124  00000+0  13007-2 0  9992", "line2": "2 30437  98.9202  15.2769 0035494  77.8594  74.4540 14.88330739993038"}}, "geometry": {"type": "Point", "coordinates": [12.841838683822669, 16.748074355268155]}}, {"type": "Feature", "properties": {"norad_id": 30438, "name": "FENGYUN 1C DEB", "group": "fengyun-1c-debris", "lat": -67.62092565621546, "lon": 33.33094553204707, "alt_km": 985.3463093547734, "timestamp": "2025-12-20T18:51:31.990541+00:00", "meta": {"OBJECT_NAME": "FENGYUN 1C DEB", "OBJECT_ID": "1999-025AEZ", "EPOCH": "2025-12-20T00:13:29.686368", "MEAN_MOTION": 13.92124605, "ECCENTRICITY": 0.01348844, "INCLINATION": 98.7498, "RA_OF_ASC_NODE": 10.6331, "ARG_OF_PERICENTER": 166.9022, "MEAN_ANOMALY": 193.5698, "EPHEMERIS_TYPE": 0, "CLASSIFICATION_TYPE": "U", "NORAD_CAT_ID": 30438, "ELEMENT_SET_NO": 999, "REV_AT_EPOCH": 95407, "BSTAR": 0.00080663089, "MEAN_MOTION_DOT": 1.071e-05, "MEAN_MOTION_DDOT": 0}, "tle": {"line1": "1 30438U 99025AEZ 25354.00937137  .00001071  00000+0  80663-3 0  9996", "line2": "2 30438  98.7498  10.6331 0134884 166.9022 193.5698 13.92124605954072"}}, "geometry": {"type": "Point", "coordinates": [33.33094553204707, -67.62092565621546]}}, {"type": "Feature", "properties": {"norad_id": 30439, "name": "FENGYUN 1C DEB", "group": "fengyun-1c-debris", "lat": -17.973096233966643, "lon": 9.128003381304563, "alt_km": 843.6604787114757, "timestamp": "2025-12-20T18:51:31.990552+00:00", "meta": {"OBJECT_NAME": "FENGYUN 1C DEB", "OBJECT_ID": "1999-025AFA", "EPOCH": "2025-12-20T00:29:56.090112", "MEAN_MOTION": 14.08852298, "ECCENTRICITY": 0.00384242, "INCLINATION": 98.7496, "RA_OF_ASC_NODE": 5.5219, "ARG_OF_PERICENTER": 315.9076, "MEAN_ANOMALY": 107.9939, "EPHEMERIS_TYPE": 0, "CLASSIFICATION_TYPE": "U", "NORAD_CAT_ID": 30439, "ELEMENT_SET_NO": 999, "REV_AT_EPOCH": 96894, "BSTAR": 0.00032720531, "MEAN_MOTION_DOT": 5.26e-06, "MEAN_MOTION_DDOT": 0}, "tle": {"line1": "1 30439U 99025AFA 25354.02078808  .00000526  00000+0  32721-3 0  9996", "line2": "2 30439  98.7496   5.5219 0038424 315.9076 107.9939 14.08852298968949"}}, "geometry": {"type": "Point", "coordinates": [9.128003381304563, -17.973096233966643]}}, {"type": "Feature", "properties": {"norad_id": 30441, "name": "FENGYUN 1C DEB", "group": "fengyun-1c-debris", "lat": 12.47896526887023, "lon": -94.11222541433781, "alt_km": 922.6618188281773, "timestamp": "2025-12-20T18:51:31.990562+00:00", "meta": {"OBJECT_NAME": "FENGYUN 1C DEB", "OBJECT_ID": "1999-025AFC", "EPOCH": "2025-12-20T12:48:09.476928", "MEAN_MOTION": 13.7768802, "ECCENTRICITY": 0.01841753, "INCLINATION": 99.1344, "RA_OF_ASC_NODE": 83.6045, "ARG_OF_PERICENTER": 236.9888, "MEAN_ANOMALY": 121.3449, "EPHEMERIS_TYPE": 0, "CLASSIFICATION_TYPE": "U", "NORAD_CAT_ID": 30441, "ELEMENT_SET_NO": 999, "REV_AT_EPOCH": 94977, "BSTAR": 0.00046418756, "MEAN_MOTION_DOT": 4.82e-06, "MEAN_MOTION_DDOT": 0}, "tle": {"line1": "1 30441U 99025AFC 25354.53344302  .00000482  00000+0  46419-3 0  9990", "line2": "2 30441  99.1344  83.6045 0184175 236.9888 121.3449 13.77688020949772"}}, "geometry": {"type": "Point", "coordinates": [-94.11222541433781, 12.47896526887023]}}, {"type": "Feature", "properties": {"norad_id": 30442, "name": "FENGYUN 1C DEB", "group": "fengyun-1c-debris", "lat": -70.09529721869959, "lon": -117.02614150199148, "alt_km": 764.3120052603172, "timestamp": "2025-12-20T18:51:31.990572+00:00", "meta": {"OBJECT_NAME": "FENGYUN 1C DEB", "OBJECT_ID": "1999-025AFD", "EPOCH": "2025-12-20T05:54:47.550816", "MEAN_MOTION": 14.28679563, "ECCENTRICITY": 0.0055641, "INCLINATION": 98.8667, "RA_OF_ASC_NODE": 87.964, "ARG_OF_PERICENTER": 265.5688, "MEAN_ANOMALY": 93.9135, "EPHEMERIS_TYPE": 0, "CLASSIFICATION_TYPE": "U", "NORAD_CAT_ID": 30442, "ELEMENT_SET_NO": 999, "REV_AT_EPOCH": 97269, "BSTAR": 0.0014339, "MEAN_MOTION_DOT": 3.62e-05, "MEAN_MOTION_DDOT": 0}, "tle": {"line1": "1 30442U 99025AFD 25354.24638369  .00003620  00000+0  14339-2 0  9990", "line2": "2 30442  98.8667  87.9640 0055641 265.5688  93.9135 14.28679563972698"}}, "geometry": {"type": "Point", "coordinates": [-117.02614150199148, -70.09529721869959]}}, {"type": "Feature", "properties": {"norad_id": 30443, "name": "FENGYUN 1C DEB", "group": "fengyun-1c-debris", "lat": -64.11737718120236, "lon": -39.14771992793385, "alt_km": 757.8428994126725, "timestamp": "2025-12-20T18:51:31.990581+00:00", "meta": {"OBJECT_NAME": "FENGYUN 1C DEB", "OBJECT_ID": "1999-025AFE", "EPOCH": "2025-12-19T09:44:15.022752", "MEAN_MOTION": 14.36877965, "ECCENTRICITY": 0.0027227, "INCLINATION": 98.8489, "RA_OF_ASC_NODE": 300.7065, "ARG_OF_PERICENTER": 319.9664, "MEAN_ANOMALY": 39.9514, "EPHEMERIS_TYPE": 0, "CLASSIFICATION_TYPE": "U", "NORAD_CAT_ID": 30443, "ELEMENT_SET_NO": 999, "REV_AT_EPOCH": 97529, "BSTAR": 0.0015537, "MEAN_MOTION_DOT": 4.569e-05, "MEAN_MOTION_DDOT": 0}, "tle": {"line1": "1 30443U 99025AFE 25353.40572943  .00004569  00000+0  15537-2 0  9997", "line2": "2 30443  98.8489 300.7065 0027227 319.9664  39.9514 14.36877965975290"}}, "geometry": {"type": "Point", "coordinates": [-39.14771992793385, -64.11737718120236]}}, {"type": "Feature", "properties": {"norad_id": 30445, "name": "FENGYUN 1C DEB", "group": "fengyun-1c-debris", "lat": -76.77117431484432, "lon": 85.08090056535761, "alt_km": 741.5200351578278, "timestamp": "2025-12-20T18:51:31.990591+00:00", "meta": {"OBJECT_NAME": "FENGYUN 1C DEB", "OBJECT_ID": "1999-025AFG", "EPOCH": "2025-12-19T20:06:30.039552", "MEAN_MOTION": 14.48783939, "ECCENTRICITY": 0.01055065, "INCLINATION": 98.8362, "RA_OF_ASC_NODE": 305.5205, "ARG_OF_PERICENTER": 357.0717, "MEAN_ANOMALY": 2.9845, "EPHEMERIS_TYPE": 0, "CLASSIFICATION_TYPE": "U", "NORAD_CAT_ID": 30445, "ELEMENT_SET_NO": 999, "REV_AT_EPOCH": 99287, "BSTAR": 0.00052744841, "MEAN_MOTION_DOT": 2.083e-05, "MEAN_MOTION_DDOT": 0}, "tle": {"line1": "1 30445U 99025AFG 25353.83784768  .00002083  00000+0  52745-3 0  9998", "line2": "2 30445  98.8362 305.5205 0105506 357.0717   2.9845 14.48783939992870"}}, "geometry": {"type": "Point", "coordinates": [85.08090056535761, -76.77117431484432]}}, {"type": "Feature", "properties": {"norad_id": 30446, "name": "FENGYUN 1C DEB", "group": "fengyun-1c-debris", "lat": -72.95487086993607, "lon": 107.0272322566903, "alt_km": 771.0075550521651, "timestamp": "2025-12-20T18:51:31.990601+00:00", "meta": {"OBJECT_NAME": "FENGYUN 1C DEB", "OBJECT_ID": "1999-025AFH", "EPOCH": "2025-12-19T23:15:44.822592", "MEAN_MOTION": 14.44800063, "ECCENTRICITY": 0.0034345, "INCLINATION": 98.6137, "RA_OF_ASC_NODE": 76.5696, "ARG_OF_PERICENTER": 76.7759, "MEAN_ANOMALY": 283.7259, "EPHEMERIS_TYPE": 0, "CLASSIFICATION_TYPE": "U", "NORAD_CAT_ID": 30446, "ELEMENT_SET_NO": 999, "REV_AT_EPOCH": 98281, "BSTAR": 0.0010807, "MEAN_MOTION_DOT": 3.738e-05, "MEAN_MOTION_DDOT": 0}, "tle": {"line1": "1 30446U 99025AFH 25353.96926878  .00003738  00000+0  10807-2 0  9993", "line2": "2 30446  98.6137  76.5696 0034345  76.7759 283.7259 14.44800063982816"}}, "geometry": {"type": "Point", "coordinates": [107.0272322566903, -72.95487086993607]}}]}